{"type":"FeatureCollection","features":[{"type":"Feature","properties":{"name":"U. Laval campus loop","desc":"Closed loop along the campus-side lanes of Ch. des Quatre-Bourgeois, Ch. Sainte-Foy, Av. Myrand, Bd René-Lévesque O., Bd Laurier and Autoroute Robert-Bourassa. Source: OpenStreetMap.","source":"OpenStreetMap (data as of 2026-09-30T06:22:43Z), traced by tools/build-border.mjs"},"geometry":{"type":"Polygon","coordinates":[[[-71.264862,46.780407],[-71.264705,46.781069],[-71.264594,46.781412],[-71.264477,46.78172],[-71.264266,46.782524],[-71.264213,46.782639],[-71.264162,46.782723],[-71.26404,46.782867],[-71.263877,46.782995],[-71.263688,46.783098],[-71.262727,46.783557],[-71.262868,46.783572],[-71.262923,46.783608],[-71.263239,46.783883],[-71.263279,46.783947],[-71.263353,46.784006],[-71.264646,46.784993],[-71.265009,46.785282],[-71.266531,46.786429],[-71.266928,46.786741],[-71.267431,46.787104],[-71.267586,46.787211],[-71.267794,46.787274],[-71.268416,46.787441],[-71.268643,46.787633],[-71.26957,46.788321],[-71.270053,46.78866],[-71.270527,46.789014],[-71.272133,46.788399],[-71.274002,46.787906],[-71.275675,46.787454],[-71.276986,46.787069],[-71.277471,46.786946],[-71.27919,46.786488],[-71.279955,46.786234],[-71.280734,46.785908],[-71.281005,46.785777],[-71.281322,46.785609],[-71.282237,46.785173],[-71.282673,46.784933],[-71.283237,46.784587],[-71.284047,46.784064],[-71.284257,46.783945],[-71.285843,46.782992],[-71.285339,46.782659],[-71.284921,46.782315],[-71.284316,46.781838],[-71.283725,46.781164],[-71.28254,46.78025],[-71.282048,46.779854],[-71.281415,46.77933],[-71.280048,46.778164],[-71.279187,46.777392],[-71.278473,46.776723],[-71.277959,46.77626],[-71.277389,46.775764],[-71.275402,46.774],[-71.271943,46.775779],[-71.271687,46.77589],[-71.267586,46.778002],[-71.26627,46.778671],[-71.265827,46.778949],[-71.265637,46.779085],[-71.265487,46.779205],[-71.265348,46.779345],[-71.26524,46.779465],[-71.265133,46.779618],[-71.265036,46.779799],[-71.264955,46.780023],[-71.264934,46.780116],[-71.264862,46.780407]]]}}]}
