{
 "type": "FeatureCollection",
 "properties": {
  "desc": "Campus reference landmark for the “are you closer to __ than me?” question.",
  "source": "Manual coordinate (feedback-v1.txt)",
  "count": 1
 },
 "features": [
  {
   "type": "Feature",
   "properties": {
    "name": "Pub U",
    "desc": "Campus reference landmark for the “are you closer to __ than me?” question."
   },
   "geometry": {
    "type": "Point",
    "coordinates": [
     -71.26919641483276,
     46.77869190815681
    ]
   }
  }
 ]
}
