{"type": "FeatureCollection", "features": [{"type": "Feature", "properties": {"name": "U. Laval campus loop", "desc": "Closed loop from campus-side lanes of Ch. Sainte-Foy, Av. Myrand, Bd Rene-Levesque O., Bd Laurier, Autoroute Robert-Bourassa. Source: OpenStreetMap.", "source": "OpenStreetMap, hand-edited in gpx.studio"}, "geometry": {"type": "Polygon", "coordinates": [[[-71.2808082, 46.7788166], [-71.2838532, 46.7813018], [-71.2841863, 46.7816893], [-71.2843027, 46.7818247], [-71.2847281, 46.7821672], [-71.2851535, 46.7825098], [-71.2852593, 46.782595], [-71.2857185, 46.7829164], [-71.2858391, 46.7830008], [-71.2853998, 46.7832635], [-71.2849052, 46.7835593], [-71.2844107, 46.7838551], [-71.2839161, 46.7841509], [-71.2836135, 46.7843319], [-71.2831308, 46.7846367], [-71.2827713, 46.7848638], [-71.2822737, 46.7851573], [-71.2822397, 46.7851774], [-71.2817036, 46.785437], [-71.2811675, 46.7856967], [-71.2809932, 46.7857811], [-71.2791902, 46.7864878], [-71.272133, 46.7883991], [-71.2705267, 46.7890142], [-71.2684162, 46.7874413], [-71.2675861, 46.7872106], [-71.2674, 46.7870823], [-71.2629233, 46.7836081], [-71.2627947, 46.7835235], [-71.2638773, 46.7829951], [-71.2642476, 46.7825718], [-71.2649544, 46.7800255], [-71.2650157, 46.779846], [-71.2651512, 46.7795975], [-71.2653236, 46.7793733], [-71.2654875, 46.7791994], [-71.2659391, 46.778873], [-71.2659781, 46.7788447], [-71.2663081, 46.7786433], [-71.275402, 46.774], [-71.2808082, 46.7788166]]]}}]}
